NORAD_CAT_ID,OBJECT_NAME,OBJECT_TYPE,EPOCH,MEAN_MOTION,ECCENTRICITY,INCLINATION,RA_OF_ASC_NODE,ARG_OF_PERICENTER,MEAN_ANOMALY,BSTAR,MEAN_MOTION_DOT,MEAN_MOTION_DDOT,TLE_LINE0,TLE_LINE1,TLE_LINE2,SEMIMAJOR_AXIS,PERIOD,APOGEE,PERIGEE,DECAYED
52353.0,STARLINK-3807,PAYLOAD,2023-11-25 08:08:14,15.08849265,0.0001751,53.2186,349.1572,93.2344,266.8848,0.00015546,2.188e-05,0.0,0 STARLINK-3807,1 52353U 22045Y   23329.33905609  .00002188  00000-0  15546-3 0  9998,2 52353  53.2186 349.1572 0001751  93.2344 266.8848 15.08849265 89675,6917.852,95.437,540.928,538.506,0.0
52353.0,STARLINK-3807,PAYLOAD,2023-11-26 01:37:28,15.08848546,0.0001733,53.2198,345.8916,79.7669,280.3518,0.00024487,3.612e-05,0.0,0 STARLINK-3807,1 52353U 22045Y   23330.06769585  .00003612  00000-0  24487-3 0  9998,2 52353  53.2198 345.8916 0001733  79.7669 280.3518 15.08848546 89780,6917.854,95.437,540.918,538.52,0.0
52353.0,STARLINK-3807,PAYLOAD,2023-11-26 06:23:38,15.08852764,0.0001934,53.2184,344.9957,92.942,267.1794,0.00025342,3.749e-05,0.0,0 STARLINK-3807,1 52353U 22045Y   23330.26641666  .00003749  00000-0  25342-3 0  9991,2 52353  53.2184 344.9957 0001934  92.9420 267.1794 15.08852764 89815,6917.841,95.437,541.044,538.368,0.0
52353.0,STARLINK-3807,PAYLOAD,2023-11-27 04:39:04,15.08823406,0.000212,53.2194,340.8364,108.3019,251.8204,-0.00023058,-3.954e-05,0.0,0 STARLINK-3807,1 52353U 22045Y   23331.19379651 -.00003954  00000-0 -23058-3 0  9998,2 52353  53.2194 340.8364 0002120 108.3019 251.8204 15.08823406 89959,6917.931,95.439,541.263,538.33,0.0
52353.0,STARLINK-3807,PAYLOAD,2023-11-27 07:49:50,15.08810547,0.0001872,53.219,340.2415,93.173,266.9477,-0.00040236,-6.681e-05,0.0,0 STARLINK-3807,1 52353U 22045Y   23331.32628406 -.00006681  00000-0 -40236-3 0  9995,2 52353  53.2190 340.2415 0001872  93.1730 266.9477 15.08810547 89973,6917.97,95.439,541.13,538.54,0.0
52353.0,STARLINK-3807,PAYLOAD,2023-11-28 01:19:05,15.08831503,0.0001949,53.2186,336.9673,74.8568,285.264,-3.1906e-05,-7.96e-06,0.0,0 STARLINK-3807,1 52353U 22045Y   23332.05491975 -.00000796  00000-0 -31906-4 0  9991,2 52353  53.2186 336.9673 0001949  74.8568 285.2640 15.08831503 90081,6917.906,95.438,541.12,538.423,0.0
52353.0,STARLINK-3807,PAYLOAD,2023-11-28 06:05:12,15.08856086,0.0001858,53.2184,336.0781,88.8138,271.3067,0.00016734,2.377e-05,0.0,0 STARLINK-3807,1 52353U 22045Y   23332.25362171  .00002377  00000-0  16734-3 0  9994,2 52353  53.2184 336.0781 0001858  88.8138 271.3067 15.08856086 90113,6917.831,95.437,540.982,538.411,0.0
52353.0,STARLINK-3807,PAYLOAD,2023-11-29 04:20:38,15.08829237,0.0001831,53.2175,331.9115,89.3728,270.7474,0.00030604,4.585e-05,0.0,0 STARLINK-3807,1 52353U 22045Y   23333.18099898  .00004585  00000-0  30604-3 0  9995,2 52353  53.2175 331.9115 0001831  89.3728 270.7474 15.08829237 90258,6917.913,95.438,541.045,538.512,0.0
52353.0,STARLINK-3807,PAYLOAD,2023-11-29 10:42:10,15.08841669,0.0001952,53.2185,330.7194,93.1374,266.9842,0.00037636,5.707e-05,0.0,0 STARLINK-3807,1 52353U 22045Y   23333.44595116  .00005707  00000-0  37636-3 0  9997,2 52353  53.2185 330.7194 0001952  93.1374 266.9842 15.08841669 90290,6917.875,95.437,541.091,538.39,0.0
52353.0,STARLINK-3807,PAYLOAD,2023-11-30 08:57:32,15.08870453,0.0002015,53.2183,326.5593,87.6404,272.4819,0.00011314,1.514e-05,0.0,0 STARLINK-3807,1 52353U 22045Y   23334.37329249  .00001514  00000-0  11314-3 0  9999,2 52353  53.2183 326.5593 0002015  87.6404 272.4819 15.08870453 90432,6917.787,95.436,541.046,538.258,0.0
52353.0,STARLINK-3807,PAYLOAD,2023-12-01 05:37:35,15.08838858,0.0001973,53.2191,322.6897,95.6852,264.4366,-9.4032e-05,-1.784e-05,0.0,0 STARLINK-3807,1 52353U 22045Y   23335.23443684 -.00001784  00000-0 -94032-4 0  9995,2 52353  53.2191 322.6897 0001973  95.6852 264.4366 15.08838858 90568,6917.884,95.438,541.114,538.384,0.0
52353.0,STARLINK-3807,PAYLOAD,2023-12-02 05:28:19,15.08876803,0.0002077,53.2187,318.2396,92.5728,267.5502,0.00026142,3.879e-05,0.0,0 STARLINK-3807,1 52353U 22045Y   23336.22800122  .00003879  00000-0  26142-3 0  9990,2 52353  53.2187 318.2396 0002077  92.5728 267.5502 15.08876803 90717,6917.768,95.435,541.07,538.196,0.0
52353.0,STARLINK-3807,PAYLOAD,2023-12-03 03:43:46,15.08824599,0.0001907,53.2191,314.0666,114.8788,245.2402,-7.075e-05,-1.413e-05,0.0,0 STARLINK-3807,1 52353U 22045Y   23337.15540466 -.00001413  00000-0 -70750-4 0  9994,2 52353  53.2191 314.0666 0001907 114.8788 245.2402 15.08824599 90853,6917.927,95.439,541.112,538.473,0.0
52353.0,STARLINK-3807,PAYLOAD,2023-12-03 08:29:57,15.08816744,0.0001735,53.2171,313.1775,118.2838,241.8329,-7.4728e-05,-1.476e-05,0.0,0 STARLINK-3807,1 52353U 22045Y   23337.35413270 -.00001476  00000-0 -74728-4 0  9996,2 52353  53.2171 313.1775 0001735 118.2838 241.8329 15.08816744 90881,6917.951,95.439,541.017,538.616,0.0
52353.0,STARLINK-3807,PAYLOAD,2023-12-04 03:34:33,15.08846299,0.0001705,53.2183,309.6084,88.3689,271.7499,-0.00011911,-2.184e-05,0.0,0 STARLINK-3807,1 52353U 22045Y   23338.14900368 -.00002184  00000-0 -11911-3 0  9994,2 52353  53.2183 309.6084 0001705  88.3689 271.7499 15.08846299 91008,6917.861,95.437,540.906,538.547,0.0
52353.0,STARLINK-3807,PAYLOAD,2023-12-04 22:39:12,15.08806426,0.0002057,53.2196,306.0384,73.1724,286.9494,0.00042311,6.446e-05,0.0,0 STARLINK-3807,1 52353U 22045Y   23338.94389963  .00006446  00000-0  42311-3 0  9995,2 52353  53.2196 306.0384 0002057  73.1724 286.9494 15.08806426 91123,6917.983,95.44,541.271,538.425,0.0
52353.0,STARLINK-3807,PAYLOAD,2023-12-05 08:11:29,15.08862649,0.0001934,53.2174,304.2552,83.269,276.8523,0.00067438,0.00010468,0.0,0 STARLINK-3807,1 52353U 22045Y   23339.34131479  .00010468  00000-0  67438-3 0  9993,2 52353  53.2174 304.2552 0001934  83.2690 276.8523 15.08862649 91189,6917.811,95.436,541.014,538.338,0.0
52353.0,STARLINK-3807,PAYLOAD,2023-12-05 22:29:58,15.08851266,0.0002701,53.2184,301.5779,100.3933,259.7364,1.8515e-06,-2.59e-06,0.0,0 STARLINK-3807,1 52353U 22045Y   23339.93747806 -.00000259  00000-0  18515-5 0  9997,2 52353  53.2184 301.5779 0002701 100.3933 259.7364 15.08851266 91271,6917.846,95.437,541.579,537.842,0.0
52353.0,STARLINK-3807,PAYLOAD,2023-12-06 03:16:07,15.08848157,0.0002164,53.218,300.6876,101.7845,258.339,-8.2756e-05,-1.605e-05,0.0,0 STARLINK-3807,1 52353U 22045Y   23340.13619635 -.00001605  00000-0 -82756-4 0  9993,2 52353  53.2180 300.6876 0002164 101.7845 258.3390 15.08848157 91308,6917.855,95.437,541.217,538.223,0.0
52353.0,STARLINK-3807,PAYLOAD,2023-12-06 08:02:16,15.08849804,0.000232,53.2182,299.7949,106.889,253.2356,-1.2007e-05,-4.8e-06,0.0,0 STARLINK-3807,1 52353U 22045Y   23340.33491444 -.00000480  00000-0 -12007-4 0  9993,2 52353  53.2182 299.7949 0002320 106.8890 253.2356 15.08849804 91338,6917.85,95.437,541.32,538.11,0.0
52353.0,STARLINK-3807,PAYLOAD,2023-12-06 20:45:21,15.08841811,0.0002586,53.219,297.4143,114.2431,245.8831,-0.00029285,-4.947e-05,0.0,0 STARLINK-3807,1 52353U 22045Y   23340.86483518 -.00004947  00000-0 -29285-3 0  9991,2 52353  53.2190 297.4143 0002586 114.2431 245.8831 15.08841811 91410,6917.875,95.437,541.529,537.951,0.0
52353.0,STARLINK-3807,PAYLOAD,2023-12-07 04:42:17,15.0883442,0.0001989,53.2175,295.9303,93.8257,266.2962,-0.00016478,-2.909e-05,0.0,0 STARLINK-3807,1 52353U 22045Y   23341.19604104 -.00002909  00000-0 -16478-3 0  9990,2 52353  53.2175 295.9303 0001989  93.8257 266.2962 15.08834420 91463,6917.897,95.438,541.138,538.386,0.0
52353.0,STARLINK-3807,PAYLOAD,2023-12-07 06:17:41,15.08835247,0.0001988,53.2174,295.6325,96.8395,263.2824,-0.00011763,-2.16e-05,0.0,0 STARLINK-3807,1 52353U 22045Y   23341.26228095 -.00002160  00000-0 -11763-3 0  9990,2 52353  53.2174 295.6325 0001988  96.8395 263.2824 15.08835247 91471,6917.895,95.438,541.135,538.385,0.0
52353.0,STARLINK-3807,PAYLOAD,2023-12-08 04:33:05,15.08841232,0.0001827,53.2165,291.4697,95.7585,264.3615,0.00026511,3.934e-05,0.0,0 STARLINK-3807,1 52353U 22045Y   23342.18964614  .00003934  00000-0  26511-3 0  9991,2 52353  53.2165 291.4697 0001827  95.7585 264.3615 15.08841232 91615,6917.877,95.437,541.006,538.478,0.0
52353.0,STARLINK-3807,PAYLOAD,2023-12-08 20:26:56,15.08845511,0.0001885,53.2162,288.4963,94.8706,265.2502,0.00037035,5.612e-05,0.0,0 STARLINK-3807,1 52353U 22045Y   23342.85204691  .00005612  00000-0  37035-3 0  9995,2 52353  53.2162 288.4963 0001885  94.8706 265.2502 15.08845511 91713,6917.864,95.437,541.033,538.425,0.0
52353.0,STARLINK-3807,PAYLOAD,2023-12-09 02:48:29,15.08852133,0.0001865,53.2162,287.3073,92.8953,267.2253,0.00034758,5.25e-05,0.0,0 STARLINK-3807,1 52353U 22045Y   23343.11700365  .00005250  00000-0  34758-3 0  9991,2 52353  53.2162 287.3073 0001865  92.8953 267.2253 15.08852133 91750,6917.843,95.437,540.998,538.418,0.0
52353.0,STARLINK-3807,PAYLOAD,2023-12-09 20:17:43,15.08846778,0.0002131,53.2168,284.0387,84.1255,275.998,0.0002273,3.332e-05,0.0,0 STARLINK-3807,1 52353U 22045Y   23343.84564504  .00003332  00000-0  22730-3 0  9990,2 52353  53.2168 284.0387 0002131  84.1255 275.9980 15.08846778 91867,6917.86,95.437,541.199,538.25,0.0
52353.0,STARLINK-3807,PAYLOAD,2023-12-09 21:53:06,15.08846089,0.0001836,53.2162,283.7377,102.2884,257.8314,0.00016643,2.362e-05,0.0,0 STARLINK-3807,1 52353U 22045Y   23343.91188315  .00002362  00000-0  16643-3 0  9998,2 52353  53.2162 283.7377 0001836 102.2884 257.8314 15.08846089 91873,6917.862,95.437,540.997,538.457,0.0
52353.0,STARLINK-3807,PAYLOAD,2023-12-11 00:54:40,15.08841556,0.0001848,53.2161,278.6831,103.0339,257.0859,2.817e-05,1.6e-06,0.0,0 STARLINK-3807,1 52353U 22045Y   23345.03796413  .00000160  00000-0  28170-4 0  9990,2 52353  53.2161 278.6831 0001848 103.0339 257.0859 15.08841556 92047,6917.876,95.437,541.019,538.462,0.0
52353.0,STARLINK-3807,PAYLOAD,2023-12-12 02:20:50,15.08846226,0.0001857,53.2167,273.9249,97.2285,262.8918,0.00017378,2.479e-05,0.0,0 STARLINK-3807,1 52353U 22045Y   23346.09780114  .00002479  00000-0  17378-3 0  9990,2 52353  53.2167 273.9249 0001857  97.2285 262.8918 15.08846226 92205,6917.861,95.437,541.011,538.442,0.0
